{
  "type": "FeatureCollection",
  "features": [
    {
      "type": "Feature",
      "properties": {
        "norad_id": 33822,
        "name": "COSMOS 2251 DEB",
        "group": "cosmos-2251-debris",
        "lat": -20.148416915406674,
        "lon": -5.970517308632942,
        "alt_km": 744.7513704570074,
        "timestamp": "2025-12-27T06:41:31.318475+00:00",
        "meta_object_name": "COSMOS 2251 DEB",
        "meta_object_id": "1993-036BP",
        "meta_epoch": "2025-12-26T21:58:01.564032",
        "meta_mean_motion": 14.13151684,
        "meta_eccentricity": 0.01525498,
        "meta_inclination": 74.0689,
        "meta_ra_of_asc_node": 168.6556,
        "meta_arg_of_pericenter": 211.5659,
        "meta_mean_anomaly": 300.8936,
        "meta_ephemeris_type": 0,
        "meta_classification_type": "U",
        "meta_norad_cat_id": 33822,
        "meta_element_set_no": 999,
        "meta_rev_at_epoch": 86254,
        "meta_bstar": 0.0021636935,
        "meta_mean_motion_dot": 4.497e-05,
        "meta_mean_motion_ddot": 0,
        "tle_line1": "1 33822U 93036BP  25360.91529588  .00004497  00000+0  21637-2 0  9996",
        "tle_line2": "2 33822  74.0689 168.6556 0152549 211.5659 300.8936 14.13151684862544"
      },
      "geometry": {
        "type": "Point",
        "coordinates": [
          -5.970517308632942,
          -20.148416915406674
        ]
      }
    },
    {
      "type": "Feature",
      "properties": {
        "norad_id": 33823,
        "name": "COSMOS 2251 DEB",
        "group": "cosmos-2251-debris",
        "lat": 6.2118356126826155,
        "lon": 125.66172401566888,
        "alt_km": 972.5559846552223,
        "timestamp": "2025-12-27T06:41:31.318485+00:00",
        "meta_object_name": "COSMOS 2251 DEB",
        "meta_object_id": "1993-036BQ",
        "meta_epoch": "2025-12-26T10:21:01.378944",
        "meta_mean_motion": 13.9898683,
        "meta_eccentricity": 0.0209489,
        "meta_inclination": 73.8101,
        "meta_ra_of_asc_node": 125.3346,
        "meta_arg_of_pericenter": 248.3149,
        "meta_mean_anomaly": 169.1404,
        "meta_ephemeris_type": 0,
        "meta_classification_type": "U",
        "meta_norad_cat_id": 33823,
        "meta_element_set_no": 999,
        "meta_rev_at_epoch": 85801,
        "meta_bstar": 0.00093914,
        "meta_mean_motion_dot": 1.611e-05,
        "meta_mean_motion_ddot": 0,
        "tle_line1": "1 33823U 93036BQ  25360.43126596  .00001611  00000+0  93914-3 0  9999",
        "tle_line2": "2 33823  73.8101 125.3346 0209489 248.3149 169.1404 13.98986830858010"
      },
      "geometry": {
        "type": "Point",
        "coordinates": [
          125.66172401566888,
          6.2118356126826155
        ]
      }
    },
    {
      "type": "Feature",
      "properties": {
        "norad_id": 33825,
        "name": "COSMOS 2251 DEB",
        "group": "cosmos-2251-debris",
        "lat": 54.275566092555735,
        "lon": 155.97843074646835,
        "alt_km": 711.7568578477121,
        "timestamp": "2025-12-27T06:41:31.318496+00:00",
        "meta_object_name": "COSMOS 2251 DEB",
        "meta_object_id": "1993-036BS",
        "meta_epoch": "2025-12-26T17:52:13.561824",
        "meta_mean_motion": 14.69910979,
        "meta_eccentricity": 0.0085128,
        "meta_inclination": 73.9853,
        "meta_ra_of_asc_node": 0.554,
        "meta_arg_of_pericenter": 324.3987,
        "meta_mean_anomaly": 211.728,
        "meta_ephemeris_type": 0,
        "meta_classification_type": "U",
        "meta_norad_cat_id": 33825,
        "meta_element_set_no": 999,
        "meta_rev_at_epoch": 89085,
        "meta_bstar": 0.0012085683,
        "meta_mean_motion_dot": 7.622e-05,
        "meta_mean_motion_ddot": 0,
        "tle_line1": "1 33825U 93036BS  25360.74460141  .00007622  00000+0  12086-2 0  9990",
        "tle_line2": "2 33825  73.9853   0.5540 0085128 324.3987 211.7280 14.69910979890858"
      },
      "geometry": {
        "type": "Point",
        "coordinates": [
          155.97843074646835,
          54.275566092555735
        ]
      }
    },
    {
      "type": "Feature",
      "properties": {
        "norad_id": 33826,
        "name": "COSMOS 2251 DEB",
        "group": "cosmos-2251-debris",
        "lat": 31.21743759037539,
        "lon": -167.43006307018777,
        "alt_km": 712.4433758959876,
        "timestamp": "2025-12-27T06:41:31.318506+00:00",
        "meta_object_name": "COSMOS 2251 DEB",
        "meta_object_id": "1993-036BT",
        "meta_epoch": "2025-12-26T10:43:14.236320",
        "meta_mean_motion": 14.51778923,
        "meta_eccentricity": 0.0082523,
        "meta_inclination": 74.0641,
        "meta_ra_of_asc_node": 24.1054,
        "meta_arg_of_pericenter": 63.8003,
        "meta_mean_anomaly": 55.2102,
        "meta_ephemeris_type": 0,
        "meta_classification_type": "U",
        "meta_norad_cat_id": 33826,
        "meta_element_set_no": 999,
        "meta_rev_at_epoch": 87968,
        "meta_bstar": 0.00046965,
        "meta_mean_motion_dot": 1.945e-05,
        "meta_mean_motion_ddot": 0,
        "tle_line1": "1 33826U 93036BT  25360.44669255  .00001945  00000+0  46965-3 0  9991",
        "tle_line2": "2 33826  74.0641  24.1054 0082523  63.8003  55.2102 14.51778923879682"
      },
      "geometry": {
        "type": "Point",
        "coordinates": [
          -167.43006307018777,
          31.21743759037539
        ]
      }
    },
    {
      "type": "Feature",
      "properties": {
        "norad_id": 33828,
        "name": "COSMOS 2251 DEB",
        "group": "cosmos-2251-debris",
        "lat": 15.626038242407857,
        "lon": -144.35650578271887,
        "alt_km": 746.1255411563707,
        "timestamp": "2025-12-27T06:41:31.318517+00:00",
        "meta_object_name": "COSMOS 2251 DEB",
        "meta_object_id": "1993-036BV",
        "meta_epoch": "2025-12-26T14:05:42.199872",
        "meta_mean_motion": 14.44371496,
        "meta_eccentricity": 0.0029517,
        "meta_inclination": 74.0447,
        "meta_ra_of_asc_node": 212.3396,
        "meta_arg_of_pericenter": 283.1452,
        "meta_mean_anomaly": 98.5213,
        "meta_ephemeris_type": 0,
        "meta_classification_type": "U",
        "meta_norad_cat_id": 33828,
        "meta_element_set_no": 999,
        "meta_rev_at_epoch": 88513,
        "meta_bstar": 0.0004039,
        "meta_mean_motion_dot": 1.372e-05,
        "meta_mean_motion_ddot": 0,
        "tle_line1": "1 33828U 93036BV  25360.58729398  .00001372  00000+0  40390-3 0  9993",
        "tle_line2": "2 33828  74.0447 212.3396 0029517 283.1452  98.5213 14.44371496885133"
      },
      "geometry": {
        "type": "Point",
        "coordinates": [
          -144.35650578271887,
          15.626038242407857
        ]
      }
    },
    {
      "type": "Feature",
      "properties": {
        "norad_id": 33830,
        "name": "COSMOS 2251 DEB",
        "group": "cosmos-2251-debris",
        "lat": 22.284871654221728,
        "lon": 15.118260325496657,
        "alt_km": 666.6353864195198,
        "timestamp": "2025-12-27T06:41:31.318527+00:00",
        "meta_object_name": "COSMOS 2251 DEB",
        "meta_object_id": "1993-036BX",
        "meta_epoch": "2025-12-27T00:09:39.478752",
        "meta_mean_motion": 14.77048237,
        "meta_eccentricity": 0.004282,
        "meta_inclination": 74.031,
        "meta_ra_of_asc_node": 202.3911,
        "meta_arg_of_pericenter": 319.5724,
        "meta_mean_anomaly": 190.8392,
        "meta_ephemeris_type": 0,
        "meta_classification_type": "U",
        "meta_norad_cat_id": 33830,
        "meta_element_set_no": 999,
        "meta_rev_at_epoch": 89682,
        "meta_bstar": 0.0008805183,
        "meta_mean_motion_dot": 6.279e-05,
        "meta_mean_motion_ddot": 0,
        "tle_line1": "1 33830U 93036BX  25361.00670693  .00006279  00000+0  88052-3 0  9995",
        "tle_line2": "2 33830  74.0310 202.3911 0042820 319.5724 190.8392 14.77048237896827"
      },
      "geometry": {
        "type": "Point",
        "coordinates": [
          15.118260325496657,
          22.284871654221728
        ]
      }
    },
    {
      "type": "Feature",
      "properties": {
        "norad_id": 33832,
        "name": "COSMOS 2251 DEB",
        "group": "cosmos-2251-debris",
        "lat": 69.71210905762344,
        "lon": -127.10444953859312,
        "alt_km": 694.9546963461835,
        "timestamp": "2025-12-27T06:41:31.318537+00:00",
        "meta_object_name": "COSMOS 2251 DEB",
        "meta_object_id": "1993-036BZ",
        "meta_epoch": "2025-12-26T22:48:26.161056",
        "meta_mean_motion": 14.60820943,
        "meta_eccentricity": 0.00239324,
        "meta_inclination": 74.0535,
        "meta_ra_of_asc_node": 182.8571,
        "meta_arg_of_pericenter": 211.239,
        "meta_mean_anomaly": 299.2619,
        "meta_ephemeris_type": 0,
        "meta_classification_type": "U",
        "meta_norad_cat_id": 33832,
        "meta_element_set_no": 999,
        "meta_rev_at_epoch": 88632,
        "meta_bstar": 0.0017853359,
        "meta_mean_motion_dot": 8.74e-05,
        "meta_mean_motion_ddot": 0,
        "tle_line1": "1 33832U 93036BZ  25360.95030279  .00008740  00000+0  17853-2 0  9995",
        "tle_line2": "2 33832  74.0535 182.8571 0023932 211.2390 299.2619 14.60820943886326"
      },
      "geometry": {
        "type": "Point",
        "coordinates": [
          -127.10444953859312,
          69.71210905762344
        ]
      }
    }
  ]
}